INMARSAT 4-F2 (SOUTHPA*)
1 28899U 05044A   26191.80922647 -.00000256  00000+0  00000+0 0  9998
2 28899   5.1237  43.6506 0002824  59.1327 260.7612  1.00271604 75752
GSAT-8 (GAGAN/PRN 127)  
1 37605U 11022A   26191.86294505  .00000091  00000+0  00000+0 0  9993
2 37605   2.1894  81.5367 0002670 165.7918  47.1851  1.00271718 53459
LUCH 5A (SDCM/PRN 140)  
1 37951U 11074B   26191.47058737 -.00000048  00000+0  00000+0 0  9999
2 37951   8.8099  73.4648 0002561  58.0321 133.2729  1.00272611 53281
SES-5 (EGNOS/PRN 136)   
1 38652U 12036A   26190.85501885  .00000046  00000+0  00000+0 0  9992
2 38652   0.0450 319.9907 0002058 149.7218 130.8584  1.00272424 44683
GSAT-10 (GAGAN/PRN 128) 
1 38779U 12051B   26191.48447434 -.00000154  00000+0  00000+0 0  9999
2 38779   0.1047 265.8772 0007450 186.9330  92.9780  1.00271849 50339
LUCH 5B (SDCM/PRN 125)  
1 38977U 12061A   26191.42102866 -.00000136  00000+0  00000+0 0  9991
2 38977  10.5304  49.6456 0003762 144.0609 229.9565  1.00271079 49845
ASTRA 5B (EGNOS/PRN 123)
1 39617U 14011B   26191.50028013  .00000147  00000+0  00000+0 0  9991
2 39617   0.0626 314.2374 0001784 162.6118  15.1666  1.00271823 44907
LUCH 5V (SDCM/PRN 141)  
1 39727U 14023A   26191.82455689 -.00000265  00000+0  00000+0 0  9996
2 39727   5.1873  69.4951 0001989  72.1798 178.5837  1.00275574 44591
GSAT-15 (GAGAN/PRN 139) 
1 41028U 15065A   26191.88378053  .00000000  00000+0  00000+0 0  9991
2 41028   0.0207  30.3985 0003570  61.2075 248.8659  1.00269735 39030
EUTELSAT 117 WEST B (W*)
1 41589U 16038B   26191.25856476 -.00000001  00000+0  00000+0 0  9997
2 41589   0.0062 158.6562 0000353 302.6110 163.0106  1.00273613 36890
SES-15 (WAAS/PRN 133)   
1 42709U 17026A   26191.68390214  .00000070  00000+0  00000+0 0  9995
2 42709   0.0246 328.6287 0000310 127.6738 309.3350  1.00266789  7661
QZS-2 (QZSS/PRN 194)    
1 42738U 17028A   26191.45600380 -.00000091  00000+0  00000+0 0  9996
2 42738  39.3930 242.8106 0757969 269.5457  82.5332  1.00277951  7863
QZS-3 (QZSS/PRN 199)    
1 42917U 17048A   26191.80593311 -.00000339  00000+0  00000+0 0  9996
2 42917   0.0728 218.4433 0002512 265.9772 221.4494  1.00274343 32493
QZS-4 (QZSS/PRN 195)    
1 42965U 17062A   26190.74072012 -.00000315  00000+0  00000+0 0  9991
2 42965  40.0954 343.1995 0747415 268.4439  81.4735  1.00291716 32020
BEIDOU-3 G1 (PRN 130)   
1 43683U 18085A   26191.81243316 -.00000103  00000+0  00000+0 0  9996
2 43683   2.9246  96.7528 0008154 355.4773 288.9208  1.00272867 28299
EUTELSAT 5 WEST B (EGN*)
1 44624U 19067A   26191.85108566 -.00000034  00000+0  00000+0 0  9997
2 44624   0.0630 348.5984 0003017 123.0020 118.5520  1.00271339 24678
BEIDOU-3 G2 (PRN 144)   
1 45344U 20017A   26191.86788507 -.00000134  00000+0  00000+0 0  9995
2 45344   2.9090  47.6619 0002106  58.3803 215.2371  1.00269782 23495
BEIDOU-3 G3 (PRN 143)   
1 45807U 20040A   26191.87395177 -.00000347  00000+0  00000+0 0  9999
2 45807   2.5017  67.4778 0001802 329.0911 317.3230  1.00266257 22301
GALAXY 30 (WAAS/PRN 135)
1 46114U 20056C   26191.75598000  .00000000  00000+0  00000+0 0  9990
2 46114   0.0271  38.4291 0001926  76.0082 321.3874  1.00270462 21526
QZS-1R (QZSS/PRN 196)   
1 49336U 21096A   26191.59113987 -.00000288  00000+0  00000+0 0  9992
2 49336  37.5070  79.2376 0754836 272.1561 282.0570  1.00246773 17248
QZS-6 (QZSS/PRN 200)    
1 62876U 25023A   26191.74419676 -.00000223  00000+0  00000+0 0  9990
2 62876   0.0220 317.9956 0001808 172.2452 156.8180  1.00268268  5181
